IRIDIUM 7               
1 24793U 97020B   26008.17867300  .00000385  00000+0  12556-3 0  9998
2 24793  86.3950  91.0098 0002259 103.6842 256.4606 14.36132755501313
IRIDIUM 5               
1 24795U 97020D   26008.20037280  .00003850  00000+0  29729-3 0  9990
2 24795  86.3891 349.0125 0106214 120.3494 240.8292 14.96763964516100
IRIDIUM 4               
1 24796U 97020E   26008.17270765  .00000408  00000+0  13102-3 0  9998
2 24796  86.3942  87.7509 0002093  99.0918 261.0516 14.37039452501902
IRIDIUM 914             
1 24836U 97030A   26008.15636257  .00000474  00000+0  14108-3 0  9994
2 24836  86.3930  95.7572 0000676 126.8876 233.2386 14.41100044636647
IRIDIUM 16              
1 24841U 97030F   26008.00791242  .00000534  00000+0  16698-3 0  9993
2 24841  86.4049 119.2794 0004142 105.0499 255.1158 14.38921294496452
IRIDIUM 911             
1 24842U 97030G   26008.04578464  .00000674  00000+0  17608-3 0  9994
2 24842  86.4471 117.8064 0015795 129.9167 230.3427 14.47938423504725
IRIDIUM 17              
1 24870U 97034B   26008.11928865  .00000515  00000+0  16382-3 0  9993
2 24870  86.3991 148.6508 0003485  80.1539 280.0053 14.38055869493033
IRIDIUM 920             
1 24871U 97034C   26008.05233276  .00000544  00000+0  16029-3 0  9992
2 24871  86.3998 127.4399 0013320 121.3940 238.8565 14.41762897496095
